NORAD_CAT_ID,OBJECT_NAME,OBJECT_TYPE,EPOCH,MEAN_MOTION,ECCENTRICITY,INCLINATION,RA_OF_ASC_NODE,ARG_OF_PERICENTER,MEAN_ANOMALY,BSTAR,MEAN_MOTION_DOT,MEAN_MOTION_DDOT,TLE_LINE0,TLE_LINE1,TLE_LINE2,SEMIMAJOR_AXIS,PERIOD,APOGEE,PERIGEE,DECAYED
55918.0,STARLINK-5867,PAYLOAD,2023-04-04 14:00:01,15.69911053,0.0004039,69.9981,130.996,272.7661,185.3475,0.00015002,0.00017857,0.0,0 STARLINK-5867,1 55918U 23037E   23094.58334491  .00017857  00000-0  15002-3 0  9997,2 55918  69.9981 130.9960 0004039 272.7661 185.3475 15.69911053  3328,6737.288,91.725,361.875,356.432,0.0
55918.0,STARLINK-5867,PAYLOAD,2023-04-04 22:00:00,15.69874272,0.0004055,69.999,130.0586,265.9465,275.5015,0.00088443,0.00107294,0.0,0 STARLINK-5867,1 55918U 23037E   23094.91667824  .00107294  00000-0  88443-3 0  9997,2 55918  69.9990 130.0586 0004055 265.9465 275.5015 15.69874272  1306,6737.394,91.727,361.991,356.527,0.0
55918.0,STARLINK-5867,PAYLOAD,2023-04-05 06:00:00,15.69941818,0.0003935,69.9994,129.1214,268.4959,356.2689,-0.00045082,-0.00054119,0.0,0 STARLINK-5867,1 55918U 23037E   23095.25001157 -.00054119  00000-0 -45082-3 0  9997,2 55918  69.9994 129.1214 0003935 268.4959 356.2689 15.69941818  3430,6737.2,91.723,361.717,356.414,0.0
55918.0,STARLINK-5867,PAYLOAD,2023-04-05 14:00:01,15.69927277,0.0003847,69.9992,128.1841,274.7328,73.3785,4.1125e-05,4.736e-05,0.0,0 STARLINK-5867,1 55918U 23037E   23095.58334491  .00004736  00000-0  41125-4 0  9996,2 55918  69.9992 128.1841 0003847 274.7328  73.3785 15.69927277  1306,6737.242,91.724,361.699,356.515,0.0
55918.0,STARLINK-5867,PAYLOAD,2023-04-05 16:00:00,15.69964759,0.0003757,69.9992,127.9498,273.8009,185.1358,-0.000669,-0.00080035,0.0,0 STARLINK-5867,1 55918U 23037E   23095.66667824 -.00080035  00000-0 -66900-3 0  9999,2 55918  69.9992 127.9498 0003757 273.8009 185.1358 15.69964759  3493,6737.135,91.722,361.531,356.469,0.0
55918.0,STARLINK-5867,PAYLOAD,2023-04-05 22:00:00,15.69863799,0.0003778,69.9993,127.2469,267.5458,163.9268,0.00090411,0.00109664,0.0,0 STARLINK-5867,1 55918U 23037E   23095.91667824  .00109664  00000-0  90411-3 0  9999,2 55918  69.9993 127.2469 0003778 267.5458 163.9268 15.69863799  1300,6737.424,91.728,361.834,356.743,0.0
55918.0,STARLINK-5867,PAYLOAD,2023-04-06 10:00:00,15.69887883,0.0003767,69.9998,125.8411,274.7963,101.6566,0.00059337,0.00071644,0.0,0 STARLINK-5867,1 55918U 23037E   23096.41667824  .00071644  00000-0  59337-3 0  9993,2 55918  69.9998 125.8411 0003767 274.7963 101.6566 15.69887883  3611,6737.355,91.726,361.758,356.682,0.0
55918.0,STARLINK-5867,PAYLOAD,2023-04-06 14:00:01,15.69945524,0.0003781,69.9994,125.3723,274.1972,323.9773,-0.00023691,-0.0002863,0.0,0 STARLINK-5867,1 55918U 23037E   23096.58335648 -.00028630  00000-0 -23691-3 0  9990,2 55918  69.9994 125.3723 0003781 274.1972 323.9773 15.69945524  1308,6737.19,91.723,361.602,356.508,0.0
55918.0,STARLINK-5867,PAYLOAD,2023-04-06 22:00:00,15.698867,0.0003662,69.9995,124.4352,268.068,53.406,0.000587,0.00070861,0.0,0 STARLINK-5867,1 55918U 23037E   23096.91667824  .00070861  00000-0  58700-3 0  9991,2 55918  69.9995 124.4352 0003662 268.0680  53.4060 15.69886700  3691,6737.358,91.726,361.69,356.756,0.0
55918.0,STARLINK-5867,PAYLOAD,2023-04-07 14:00:01,15.69963489,0.0003485,69.9992,122.5608,273.3688,214.734,-0.00041793,-0.00050249,0.0,0 STARLINK-5867,1 55918U 23037E   23097.58334491 -.00050249  00000-0 -41793-3 0  9990,2 55918  69.9992 122.5608 0003485 273.3688 214.7340 15.69963489  3795,6737.138,91.722,361.351,356.656,0.0
55918.0,STARLINK-5867,PAYLOAD,2023-04-08 04:44:54,15.69930805,0.0003669,69.9992,120.8334,268.8741,91.2034,7.5854e-05,8.921e-05,0.0,0 STARLINK-5867,1 55918U 23037E   23098.19785001  .00008921  00000-0  75854-4 0  9999,2 55918  69.9992 120.8334 0003669 268.8741  91.2034 15.69930805  3890,6737.232,91.724,361.569,356.625,0.0
55918.0,STARLINK-5867,PAYLOAD,2023-04-08 10:51:54,15.69927832,0.000388,69.9992,120.1166,266.1487,93.9265,3.4149e-05,3.896e-05,0.0,0 STARLINK-5867,1 55918U 23037E   23098.45271606  .00003896  00000-0  34149-4 0  9997,2 55918  69.9992 120.1166 0003880 266.1487  93.9265 15.69927832  3597,6737.24,91.724,361.72,356.491,0.0
55918.0,STARLINK-5867,PAYLOAD,2023-04-09 03:41:10,15.69931544,0.0003405,69.9988,118.1473,264.174,95.9068,3.5531e-05,4.063e-05,0.0,0 STARLINK-5867,1 55918U 23037E   23099.15359928  .00004063  00000-0  35531-4 0  9992,2 55918  69.9988 118.1473 0003405 264.1740  95.9068 15.69931544  4042,6737.23,91.724,361.389,356.801,0.0
55918.0,STARLINK-5867,PAYLOAD,2023-04-09 11:19:56,15.69923827,0.0003679,69.9995,117.2514,262.6745,97.4032,7.0662e-06,6.37e-06,0.0,0 STARLINK-5867,1 55918U 23037E   23099.47218610  .00000637  00000-0  70662-5 0  9997,2 55918  69.9995 117.2514 0003679 262.6745  97.4032 15.69923827  4095,6737.252,91.724,361.596,356.638,0.0
55918.0,STARLINK-5867,PAYLOAD,2023-04-09 12:51:41,15.69923214,0.0003643,69.9993,117.0722,264.7971,95.2809,5.9563e-06,5.03e-06,0.0,0 STARLINK-5867,1 55918U 23037E   23099.53590200  .00000503  00000-0  59563-5 0  9991,2 55918  69.9993 117.0722 0003643 264.7971  95.2809 15.69923214  3768,6737.254,91.724,361.573,356.664,0.0
55918.0,STARLINK-5867,PAYLOAD,2023-04-10 13:19:43,15.69930509,0.0003636,69.9993,114.2058,264.0347,96.0434,2.6937e-05,3.028e-05,0.0,0 STARLINK-5867,1 55918U 23037E   23100.55536680  .00003028  00000-0  26937-4 0  9991,2 55918  69.9993 114.2058 0003636 264.0347  96.0434 15.69930509  4265,6737.233,91.724,361.547,356.648,0.0
55918.0,STARLINK-5867,PAYLOAD,2023-04-11 10:44:21,15.69797941,0.0003182,69.9995,111.6974,271.3699,88.7132,-0.00023301,-0.0002799,0.0,0 STARLINK-5867,1 55918U 23037E   23101.44746706 -.00027990  00000-0 -23301-3 0  9999,2 55918  69.9995 111.6974 0003182 271.3699  88.7132 15.69797941  4402,6737.612,91.732,361.621,357.333,0.0
55918.0,STARLINK-5867,PAYLOAD,2023-04-12 02:02:20,15.69167266,0.0003473,69.9991,109.9059,263.8261,96.2538,-0.0014414,-0.00164944,0.0,0 STARLINK-5867,1 55918U 23037E   23102.08495602 -.00164944  00000-0 -14414-2 0  9991,2 55918  69.9991 109.9059 0003473 263.8261  96.2538 15.69167266  4502,6739.417,91.768,363.623,358.942,0.0
55918.0,STARLINK-5867,PAYLOAD,2023-04-12 08:09:35,15.68869622,0.0003169,70.0002,109.1908,273.589,86.4942,-0.0023022,-0.00257276,0.0,0 STARLINK-5867,1 55918U 23037E   23102.33999317 -.00257276  00000-0 -23022-2 0  9997,2 55918  70.0002 109.1908 0003169 273.5890  86.4942 15.68869622  4549,6740.27,91.786,364.271,359.999,0.0
55918.0,STARLINK-5867,PAYLOAD,2023-04-12 22:00:01,15.66805834,0.0003538,70.0003,107.5765,266.8693,105.7944,-0.0091196,-0.0087027,0.0,0 STARLINK-5867,1 55918U 23037E   23102.91668981 -.00870270  00000-0 -91196-2 0  9993,2 55918  70.0003 107.5765 0003538 266.8693 105.7944 15.66805834  4639,6746.187,91.907,370.439,365.665,0.0
55918.0,STARLINK-5867,PAYLOAD,2023-04-13 12:00:00,15.65681745,0.0003554,69.9998,105.9454,274.2725,146.4328,-0.0099776,-0.00919811,0.0,0 STARLINK-5867,1 55918U 23037E   23103.50001157 -.00919811  00000-0 -99776-2 0  9992,2 55918  69.9998 105.9454 0003554 274.2725 146.4328 15.65681745  1304,6749.416,91.973,373.68,368.882,0.0
55918.0,STARLINK-5867,PAYLOAD,2023-04-13 22:00:00,15.64855707,0.0003594,69.9999,104.782,264.2929,343.5946,-0.0099967,-0.00893991,0.0,0 STARLINK-5867,1 55918U 23037E   23103.91667824 -.00893991  00000-0 -99967-2 0  9998,2 55918  69.9999 104.7820 0003594 264.2929 343.5946 15.64855707  4790,6751.791,92.021,376.082,371.229,0.0
55918.0,STARLINK-5867,PAYLOAD,2023-04-14 14:00:01,15.63583132,0.000365,69.9998,102.9233,274.1119,126.7871,-0.011376,-0.00960526,0.0,0 STARLINK-5867,1 55918U 23037E   23104.58335648 -.00960526  00000-0 -11376-1 0  9994,2 55918  69.9998 102.9233 0003650 274.1119 126.7871 15.63583132  1302,6755.454,92.096,379.784,374.853,0.0
55918.0,STARLINK-5867,PAYLOAD,2023-04-15 08:00:01,15.62055704,0.0003575,69.9997,100.8371,271.5733,27.6064,-0.010655,-0.00856564,0.0,0 STARLINK-5867,1 55918U 23037E   23105.33334491 -.00856564  00000-0 -10655-1 0  9998,2 55918  69.9997 100.8371 0003575 271.5733  27.6064 15.62055704  5013,6759.857,92.186,384.138,379.305,0.0
55918.0,STARLINK-5867,PAYLOAD,2023-04-15 14:00:01,15.61634375,0.0003493,69.9992,100.1424,270.5552,353.836,-0.012514,-0.00977119,0.0,0 STARLINK-5867,1 55918U 23037E   23105.58334491 -.00977119  00000-0 -12514-1 0  9991,2 55918  69.9992 100.1424 0003493 270.5552 353.8360 15.61634375  1304,6761.073,92.211,385.299,380.576,0.0
55918.0,STARLINK-5867,PAYLOAD,2023-04-15 22:00:01,15.6094944,0.000355,69.9995,99.2171,266.6582,70.7581,-0.011825,-0.0090595,0.0,0 STARLINK-5867,1 55918U 23037E   23105.91668981 -.00905950  00000-0 -11825-1 0  9990,2 55918  69.9995  99.2171 0003550 266.6582  70.7581 15.60949440  1308,6763.05,92.252,387.316,382.514,0.0
55918.0,STARLINK-5867,PAYLOAD,2023-04-16 10:00:00,15.59956635,0.0003399,69.9996,97.8307,272.3441,352.9791,-0.012008,-0.00887181,0.0,0 STARLINK-5867,1 55918U 23037E   23106.41667824 -.00887181  00000-0 -12008-1 0  9990,2 55918  69.9996  97.8307 0003399 272.3441 352.9791 15.59956635  1303,6765.919,92.31,390.084,385.485,0.0
55918.0,STARLINK-5867,PAYLOAD,2023-04-16 22:00:00,15.58999587,0.0003237,69.9992,96.4467,263.9113,287.6086,-0.012911,-0.00916726,0.0,0 STARLINK-5867,1 55918U 23037E   23106.91667824 -.00916726  00000-0 -12911-1 0  9996,2 55918  69.9992  96.4467 0003237 263.9113 287.6086 15.58999587  1307,6768.688,92.367,392.744,388.362,0.0
55918.0,STARLINK-5867,PAYLOAD,2023-04-17 06:00:00,15.58302713,0.0003245,69.9991,95.525,270.3934,350.9731,-0.012371,-0.00860585,0.0,0 STARLINK-5867,1 55918U 23037E   23107.25001157 -.00860585  00000-0 -12371-1 0  9996,2 55918  69.9991  95.5250 0003245 270.3934 350.9731 15.58302713  5313,6770.706,92.408,394.768,390.374,0.0
55918.0,STARLINK-5867,PAYLOAD,2023-04-17 14:00:01,15.57701384,0.0003299,69.9989,94.6041,270.6895,59.7048,-0.014065,-0.00947652,0.0,0 STARLINK-5867,1 55918U 23037E   23107.58334491 -.00947652  00000-0 -14065-1 0  9995,2 55918  69.9989  94.6041 0003299 270.6895  59.7048 15.57701384  1302,6772.448,92.444,396.548,392.079,0.0
